NORAD_CAT_ID,OBJECT_NAME,OBJECT_TYPE,EPOCH,MEAN_MOTION,ECCENTRICITY,INCLINATION,RA_OF_ASC_NODE,ARG_OF_PERICENTER,MEAN_ANOMALY,BSTAR,MEAN_MOTION_DOT,MEAN_MOTION_DDOT,TLE_LINE0,TLE_LINE1,TLE_LINE2,SEMIMAJOR_AXIS,PERIOD,APOGEE,PERIGEE,DECAYED
51895.0,STARLINK-3594,PAYLOAD,2024-01-19 02:15:06,15.08866727,0.0001479,53.2157,263.3448,109.9568,250.1584,0.00023164,3.403e-05,0.0,0 STARLINK-3594,1 51895U 22022AV  24019.09382013  .00003403  00000-0  23164-3 0  9997,2 51895  53.2157 263.3448 0001479 109.9568 250.1584 15.08866727105407,6917.799,95.436,540.687,538.641,0.0
51895.0,STARLINK-3594,PAYLOAD,2024-01-19 19:44:22,15.08836419,0.0001473,53.2156,260.0791,101.3125,258.8033,6.0045e-05,6.68e-06,0.0,0 STARLINK-3594,1 51895U 22022AV  24019.82248464  .00000668  00000-0  60045-4 0  9999,2 51895  53.2156 260.0791 0001473 101.3125 258.8033 15.08836419105511,6917.891,95.438,540.775,538.737,0.0
51895.0,STARLINK-3594,PAYLOAD,2024-01-19 21:19:45,15.0883623,0.0001356,53.2163,259.7812,93.7725,266.3422,5.6755e-05,6.15e-06,0.0,0 STARLINK-3594,1 51895U 22022AV  24019.88872514  .00000615  00000-0  56755-4 0  9999,2 51895  53.2163 259.7812 0001356  93.7725 266.3422 15.08836230105526,6917.892,95.438,540.695,538.819,0.0
51895.0,STARLINK-3594,PAYLOAD,2024-01-20 21:10:33,15.08838626,0.0001467,53.2166,255.3255,108.4071,251.708,-4.8726e-05,-1.063e-05,0.0,0 STARLINK-3594,1 51895U 22022AV  24020.88233030 -.00001063  00000-0 -48726-4 0  9994,2 51895  53.2166 255.3255 0001467 108.4071 251.7080 15.08838626105678,6917.885,95.438,540.764,538.735,0.0
51895.0,STARLINK-3594,PAYLOAD,2024-01-21 01:56:42,15.08826562,0.0002605,53.2164,254.4262,136.3366,223.7832,0.00011775,1.585e-05,0.0,0 STARLINK-3594,1 51895U 22022AV  24021.08105186  .00001585  00000-0  11775-3 0  9997,2 51895  53.2164 254.4262 0002605 136.3366 223.7832 15.08826562105700,6917.921,95.438,541.589,537.984,0.0
51895.0,STARLINK-3594,PAYLOAD,2024-01-21 19:25:56,15.08837353,0.0001325,53.216,251.1576,90.504,269.6104,0.00016069,2.27e-05,0.0,0 STARLINK-3594,1 51895U 22022AV  24021.80968549  .00002270  00000-0  16069-3 0  9990,2 51895  53.2160 251.1576 0001325  90.5040 269.6104 15.08837353105819,6917.888,95.438,540.67,538.837,0.0
51895.0,STARLINK-3594,PAYLOAD,2024-01-21 22:36:42,15.08840254,0.0001337,53.2161,250.5627,87.1547,272.9598,0.00018722,2.693e-05,0.0,0 STARLINK-3594,1 51895U 22022AV  24021.94216369  .00002693  00000-0  18722-3 0  9998,2 51895  53.2161 250.5627 0001337  87.1547 272.9598 15.08840254105837,6917.88,95.438,540.67,538.82,0.0
51895.0,STARLINK-3594,PAYLOAD,2024-01-22 00:12:05,15.08842652,0.0001364,53.2162,250.2647,90.8427,269.2722,0.00020792,3.023e-05,0.0,0 STARLINK-3594,1 51895U 22022AV  24022.00840201  .00003023  00000-0  20792-3 0  9992,2 51895  53.2162 250.2647 0001364  90.8427 269.2722 15.08842652105848,6917.872,95.437,540.681,538.794,0.0
51895.0,STARLINK-3594,PAYLOAD,2024-01-22 19:16:44,15.08837597,0.0001403,53.2164,246.6956,95.6976,264.4176,8.61e-05,1.083e-05,0.0,0 STARLINK-3594,1 51895U 22022AV  24022.80329187  .00001083  00000-0  86100-4 0  9995,2 51895  53.2164 246.6956 0001403  95.6976 264.4176 15.08837597105963,6917.888,95.438,540.723,538.782,0.0
51895.0,STARLINK-3594,PAYLOAD,2024-01-22 22:27:30,15.08839921,0.0001379,53.2162,246.102,88.9415,271.1735,9.9834e-05,1.301e-05,0.0,0 STARLINK-3594,1 51895U 22022AV  24022.93577030  .00001301  00000-0  99834-4 0  9992,2 51895  53.2162 246.1020 0001379  88.9415 271.1735 15.08839921105984,6917.881,95.438,540.7,538.792,0.0
51895.0,STARLINK-3594,PAYLOAD,2024-01-23 20:42:53,15.08850965,0.0001426,53.2158,241.9404,81.212,278.9033,9.8182e-05,1.275e-05,0.0,0 STARLINK-3594,1 51895U 22022AV  24023.86312267  .00001275  00000-0  98182-4 0  9999,2 51895  53.2158 241.9404 0001426  81.2120 278.9033 15.08850965106124,6917.847,95.437,540.698,538.725,0.0
51895.0,STARLINK-3594,PAYLOAD,2024-01-24 03:04:26,15.08851104,0.0001422,53.2151,240.75,90.3199,269.7956,0.0001454,2.028e-05,0.0,0 STARLINK-3594,1 51895U 22022AV  24024.12808045  .00002028  00000-0  14540-3 0  9995,2 51895  53.2151 240.7500 0001422  90.3199 269.7956 15.08851104106166,6917.846,95.437,540.695,538.728,0.0
51895.0,STARLINK-3594,PAYLOAD,2024-01-24 12:36:46,15.08831362,0.0001421,53.2145,238.9668,83.8575,276.2579,8.0388e-06,-1.6e-06,0.0,0 STARLINK-3594,1 51895U 22022AV  24024.52553444 -.00000160  00000-0  80388-5 0  9990,2 51895  53.2145 238.9668 0001421  83.8575 276.2579 15.08831362106222,6917.907,95.438,540.755,538.789,0.0
51895.0,STARLINK-3594,PAYLOAD,2024-01-24 20:33:41,15.08837286,0.0001494,53.2143,237.4801,79.8097,280.3064,8.4131e-05,1.051e-05,0.0,0 STARLINK-3594,1 51895U 22022AV  24024.85673269  .00001051  00000-0  84131-4 0  9992,2 51895  53.2143 237.4801 0001494  79.8097 280.3064 15.08837286106278,6917.889,95.438,540.787,538.72,0.0
51895.0,STARLINK-3594,PAYLOAD,2024-01-24 22:09:04,15.08837738,0.0001505,53.2144,237.1828,82.758,277.3583,9.37e-05,1.203e-05,0.0,0 STARLINK-3594,1 51895U 22022AV  24024.92297269  .00001203  00000-0  93700-4 0  9993,2 51895  53.2144 237.1828 0001505  82.7580 277.3583 15.08837738106283,6917.887,95.438,540.793,538.711,0.0
51895.0,STARLINK-3594,PAYLOAD,2024-01-25 20:24:28,15.0884546,0.0001522,53.2143,233.02,76.2749,283.8412,0.0003879,5.892e-05,0.0,0 STARLINK-3594,1 51895U 22022AV  24025.85033358  .00005892  00000-0  38790-3 0  9998,2 51895  53.2143 233.0200 0001522  76.2749 283.8412 15.08845460106425,6917.864,95.437,540.782,538.676,0.0
51895.0,STARLINK-3594,PAYLOAD,2024-01-26 18:39:52,15.08848688,0.0001537,53.2145,228.857,80.1847,279.9318,0.00033257,5.01e-05,0.0,0 STARLINK-3594,1 51895U 22022AV  24026.77769163  .00005010  00000-0  33257-3 0  9995,2 51895  53.2145 228.8570 0001537  80.1847 279.9318 15.08848688106569,6917.854,95.437,540.782,538.656,0.0
51895.0,STARLINK-3594,PAYLOAD,2024-01-27 13:44:30,15.0884104,0.0001621,53.2154,225.2862,91.5352,268.5826,5.2758e-05,5.52e-06,0.0,0 STARLINK-3594,1 51895U 22022AV  24027.57257194  .00000552  00000-0  52758-4 0  9994,2 51895  53.2154 225.2862 0001621  91.5352 268.5826 15.08841040106681,6917.877,95.437,540.864,538.621,0.0
51895.0,STARLINK-3594,PAYLOAD,2024-01-27 20:06:02,15.08839528,0.0001583,53.2154,224.0964,92.3209,267.7964,2.3194e-05,8.1e-07,0.0,0 STARLINK-3594,1 51895U 22022AV  24027.83753271  .00000081  00000-0  23194-4 0  9999,2 51895  53.2154 224.0964 0001583  92.3209 267.7964 15.08839528106725,6917.882,95.438,540.842,538.652,0.0
51895.0,STARLINK-3594,PAYLOAD,2024-01-28 13:35:17,15.08837765,0.0001639,53.2157,220.8258,94.2563,265.8616,4.6567e-05,4.53e-06,0.0,0 STARLINK-3594,1 51895U 22022AV  24028.56617367  .00000453  00000-0  46567-4 0  9997,2 51895  53.2157 220.8258 0001639  94.2563 265.8616 15.08837765106830,6917.887,95.438,540.886,538.618,0.0
51895.0,STARLINK-3594,PAYLOAD,2024-01-28 18:21:27,15.08838462,0.0001606,53.2168,219.9338,95.3213,264.7962,7.5143e-05,9.08e-06,0.0,0 STARLINK-3594,1 51895U 22022AV  24028.76489599  .00000908  00000-0  75143-4 0  9990,2 51895  53.2168 219.9338 0001606  95.3213 264.7962 15.08838462106868,6917.885,95.438,540.861,538.639,0.0
51895.0,STARLINK-3594,PAYLOAD,2024-01-30 11:41:28,15.08846016,0.0001489,53.2158,212.2038,88.0954,272.0209,9.9383e-05,1.294e-05,0.0,0 STARLINK-3594,1 51895U 22022AV  24030.48713236  .00001294  00000-0  99383-4 0  9991,2 51895  53.2158 212.2038 0001489  88.0954 272.0209 15.08846016107120,6917.862,95.437,540.757,538.697,0.0
51895.0,STARLINK-3594,PAYLOAD,2024-01-30 19:38:24,15.08841607,0.0001366,53.2163,210.7156,84.5108,275.604,8.7822e-05,1.11e-05,0.0,0 STARLINK-3594,1 51895U 22022AV  24030.81833678  .00001110  00000-0  87822-4 0  9993,2 51895  53.2163 210.7156 0001366  84.5108 275.6040 15.08841607107174,6917.875,95.437,540.685,538.795,0.0
51895.0,STARLINK-3594,PAYLOAD,2024-01-31 11:32:15,15.08839654,0.0001375,53.217,207.7427,84.6651,275.4498,0.000121,1.638e-05,0.0,0 STARLINK-3594,1 51895U 22022AV  24031.48073576  .00001638  00000-0  12100-3 0  9991,2 51895  53.2170 207.7427 0001375  84.6651 275.4498 15.08839654107278,6917.881,95.438,540.698,538.795,0.0
51895.0,STARLINK-3594,PAYLOAD,2024-02-01 11:23:01,15.08848781,0.0001426,53.217,203.2828,82.096,278.0194,0.00017239,2.457e-05,0.0,0 STARLINK-3594,1 51895U 22022AV  24032.47432699  .00002457  00000-0  17239-3 0  9994,2 51895  53.2170 203.2828 0001426  82.0960 278.0194 15.08848781107426,6917.854,95.437,540.705,538.732,0.0
51895.0,STARLINK-3594,PAYLOAD,2024-02-01 16:09:11,15.08851615,0.0001485,53.2165,202.3906,79.4925,280.6234,0.00020178,2.926e-05,0.0,0 STARLINK-3594,1 51895U 22022AV  24032.67304500  .00002926  00000-0  20178-3 0  9992,2 51895  53.2165 202.3906 0001485  79.4925 280.6234 15.08851615107450,6917.845,95.437,540.737,538.683,0.0
51895.0,STARLINK-3594,PAYLOAD,2024-02-02 11:13:49,15.08844367,0.0002367,53.2185,198.8246,98.2347,261.8914,3.1557e-06,-2.38e-06,0.0,0 STARLINK-3594,1 51895U 22022AV  24033.46793001 -.00000238  00000-0  31557-5 0  9998,2 51895  53.2185 198.8246 0002367  98.2347 261.8914 15.08844367107570,6917.867,95.437,541.369,538.095,0.0
51895.0,STARLINK-3594,PAYLOAD,2024-02-02 14:24:35,15.08840807,0.0001937,53.2179,198.2241,112.9289,247.1908,8.6208e-06,-1.51e-06,0.0,0 STARLINK-3594,1 51895U 22022AV  24033.60041334 -.00000151  00000-0  86208-5 0  9996,2 51895  53.2179 198.2241 0001937 112.9289 247.1908 15.08840807107590,6917.878,95.438,541.083,538.403,0.0
51895.0,STARLINK-3594,PAYLOAD,2024-02-02 15:59:59,15.08837644,0.00012,53.2157,197.9282,88.8587,271.2542,-7.6894e-06,-4.1e-06,0.0,0 STARLINK-3594,1 51895U 22022AV  24033.66665627 -.00000410  00000-0 -76894-5 0  9998,2 51895  53.2157 197.9282 0001200  88.8587 271.2542 15.08837644107601,6917.888,95.438,540.583,538.922,0.0
51895.0,STARLINK-3594,PAYLOAD,2024-02-03 11:04:37,15.08838981,0.0001167,53.2163,194.3577,81.1042,279.0082,-9.3944e-05,-1.783e-05,0.0,0 STARLINK-3594,1 51895U 22022AV  24034.46153973 -.00001783  00000-0 -93944-4 0  9991,2 51895  53.2163 194.3577 0001167  81.1042 279.0082 15.08838981107723,6917.884,95.438,540.556,538.941,0.0
